{"type": "FeatureCollection", "features": [ {"type": "Feature", "properties": {"norad_id": 37867, "name": "COSMOS 2476 (744)", "group": "gnss", "lat": 39.914104115009266, "lon": 102.06583790889711, "alt_km": 19186.13655554333, "timestamp": "2025-12-08T23:34:04.211224+00:00", "meta": {"OBJECT_NAME": "COSMOS 2476 (744)", "OBJECT_ID": "2011-064A", "EPOCH": "2025-12-08T12:40:16.683168", "MEAN_MOTION": 2.131013, "ECCENTRICITY": 0.00241182, "INCLINATION": 65.16, "RA_OF_ASC_NODE": 79.314, "ARG_OF_PERICENTER": 233.9995, "MEAN_ANOMALY": 182.6426, "EPHEMERIS_TYPE": 0, "CLASSIFICATION_TYPE": "U", "NORAD_CAT_ID": 37867, "ELEMENT_SET_NO": 999, "REV_AT_EPOCH": 10970, "BSTAR": 0, "MEAN_MOTION_DOT": -1.2e-07, "MEAN_MOTION_DDOT": 0}, "tle": {"line1": "1 37867U 11064A   25342.52797087 -.00000012  00000+0  00000+0 0  9996", "line2": "2 37867  65.1600  79.3140 0024118 233.9995 182.6426  2.13101300109708"}}, "geometry": {"type": "Point", "coordinates": [102.06583790889711, 39.914104115009266]}}, {"type": "Feature", "properties": {"norad_id": 37868, "name": "COSMOS 2477 (745)", "group": "gnss", "lat": -40.649184165097324, "lon": -77.22894111346461, "alt_km": 19081.479382591886, "timestamp": "2025-12-08T23:34:04.211236+00:00", "meta": {"OBJECT_NAME": "COSMOS 2477 (745)", "OBJECT_ID": "2011-064B", "EPOCH": "2025-12-08T06:12:22.664160", "MEAN_MOTION": 2.13102704, "ECCENTRICITY": 0.0021182, "INCLINATION": 65.1663, "RA_OF_ASC_NODE": 79.4007, "ARG_OF_PERICENTER": 234.576, "MEAN_ANOMALY": 156.3219, "EPHEMERIS_TYPE": 0, "CLASSIFICATION_TYPE": "U", "NORAD_CAT_ID": 37868, "ELEMENT_SET_NO": 999, "REV_AT_EPOCH": 10969, "BSTAR": 0, "MEAN_MOTION_DOT": -1.1e-07, "MEAN_MOTION_DDOT": 0}, "tle": {"line1": "1 37868U 11064B   25342.25859565 -.00000011  00000+0  00000+0 0  9996", "line2": "2 37868  65.1663  79.4007 0021182 234.5760 156.3219  2.13102704109691"}}, "geometry": {"type": "Point", "coordinates": [-77.22894111346461, -40.649184165097324]}}, {"type": "Feature", "properties": {"norad_id": 37869, "name": "COSMOS 2475 (743)", "group": "gnss", "lat": -1.449679670691581, "lon": -99.9272378231539, "alt_km": 19104.340584674777, "timestamp": "2025-12-08T23:34:04.211249+00:00", "meta": {"OBJECT_NAME": "COSMOS 2475 (743)", "OBJECT_ID": "2011-064C", "EPOCH": "2025-12-08T07:57:01.791072", "MEAN_MOTION": 2.13101382, "ECCENTRICITY": 0.00262509, "INCLINATION": 65.1734, "RA_OF_ASC_NODE": 79.4181, "ARG_OF_PERICENTER": 248.5935, "MEAN_ANOMALY": 154.0263, "EPHEMERIS_TYPE": 0, "CLASSIFICATION_TYPE": "U", "NORAD_CAT_ID": 37869, "ELEMENT_SET_NO": 999, "REV_AT_EPOCH": 10970, "BSTAR": 0, "MEAN_MOTION_DOT": -1.1e-07, "MEAN_MOTION_DDOT": 0}, "tle": {"line1": "1 37869U 11064C   25342.33127073 -.00000011  00000+0  00000+0 0  9998", "line2": "2 37869  65.1734  79.4181 0026250 248.5935 154.0263  2.13101382109701"}}, "geometry": {"type": "Point", "coordinates": [-99.9272378231539, -1.449679670691581]}}, {"type": "Feature", "properties": {"norad_id": 37948, "name": "BEIDOU-2 IGSO-5 (C10)", "group": "gnss", "lat": -44.68508742308698, "lon": 156.56606579779015, "alt_km": 35378.25284415283, "timestamp": "2025-12-08T23:34:04.211260+00:00", "meta": {"OBJECT_NAME": "BEIDOU-2 IGSO-5 (C10)", "OBJECT_ID": "2011-073A", "EPOCH": "2025-12-07T19:12:14.882400", "MEAN_MOTION": 1.00291658, "ECCENTRICITY": 0.01104068, "INCLINATION": 48.0298, "RA_OF_ASC_NODE": 273.9181, "ARG_OF_PERICENTER": 222.1784, "MEAN_ANOMALY": 321.4594, "EPHEMERIS_TYPE": 0, "CLASSIFICATION_TYPE": "U", "NORAD_CAT_ID": 37948, "ELEMENT_SET_NO": 999, "REV_AT_EPOCH": 5121, "BSTAR": 0, "MEAN_MOTION_DOT": -1.91e-06, "MEAN_MOTION_DDOT": 0}, "tle": {"line1": "1 37948U 11073A   25341.80017225 -.00000191  00000+0  00000+0 0  9993", "line2": "2 37948  48.0298 273.9181 0110406 222.1784 321.4594  1.00291658 51212"}}, "geometry": {"type": "Point", "coordinates": [156.56606579779015, -44.68508742308698]}}, {"type": "Feature", "properties": {"norad_id": 37951, "name": "LUCH 5A (SDCM/PRN 140)", "group": "gnss", "lat": 2.5466641902039857, "lon": -121.30922597135313, "alt_km": 35761.608758193644, "timestamp": "2025-12-08T23:34:04.211272+00:00", "meta": {"OBJECT_NAME": "LUCH 5A (SDCM/PRN 140)", "OBJECT_ID": "2011-074B", "EPOCH": "2025-12-08T14:23:47.689728", "MEAN_MOTION": 1.00274097, "ECCENTRICITY": 0.00057865, "INCLINATION": 8.2694, "RA_OF_ASC_NODE": 76.6453, "ARG_OF_PERICENTER": 178.2122, "MEAN_ANOMALY": 205.7197, "EPHEMERIS_TYPE": 0, "CLASSIFICATION_TYPE": "U", "NORAD_CAT_ID": 37951, "ELEMENT_SET_NO": 999, "REV_AT_EPOCH": 5114, "BSTAR": 0, "MEAN_MOTION_DOT": -4.9e-07, "MEAN_MOTION_DDOT": 0}, "tle": {"line1": "1 37951U 11074B   25342.59985752 -.00000049  00000+0  00000+0 0  9996", "line2": "2 37951   8.2694  76.6453 0005786 178.2122 205.7197  1.00274097 51148"}}, "geometry": {"type": "Point", "coordinates": [-121.30922597135313, 2.5466641902039857]}}, {"type": "Feature", "properties": {"norad_id": 38091, "name": "BEIDOU-2 G5 (C05)", "group": "gnss", "lat": 2.6834922620947244, "lon": 130.17299116128925, "alt_km": 35836.6234178903, "timestamp": "2025-12-08T23:34:04.211292+00:00", "meta": {"OBJECT_NAME": "BEIDOU-2 G5 (C05)", "OBJECT_ID": "2012-008A", "EPOCH": "2025-12-08T13:53:05.631360", "MEAN_MOTION": 1.00274194, "ECCENTRICITY": 0.00125349, "INCLINATION": 3.0988, "RA_OF_ASC_NODE": 70.7215, "ARG_OF_PERICENTER": 226.9655, "MEAN_ANOMALY": 46.9097, "EPHEMERIS_TYPE": 0, "CLASSIFICATION_TYPE": "U", "NORAD_CAT_ID": 38091, "ELEMENT_SET_NO": 999, "REV_AT_EPOCH": 5045, "BSTAR": 0, "MEAN_MOTION_DOT": 5.8e-07, "MEAN_MOTION_DDOT": 0}, "tle": {"line1": "1 38091U 12008A   25342.57853740  .00000058  00000+0  00000+0 0  9998", "line2": "2 38091   3.0988  70.7215 0012534 226.9655  46.9097  1.00274194 50450"}}, "geometry": {"type": "Point", "coordinates": [130.17299116128925, 2.6834922620947244]}}, {"type": "Feature", "properties": {"norad_id": 38250, "name": "BEIDOU-2 M3 (C11)", "group": "gnss", "lat": -55.300916724697935, "lon": -126.42215020268051, "alt_km": 21466.076197232713, "timestamp": "2025-12-08T23:34:04.211305+00:00", "meta": {"OBJECT_NAME": "BEIDOU-2 M3 (C11)", "OBJECT_ID": "2012-018A", "EPOCH": "2025-12-08T13:38:39.272640", "MEAN_MOTION": 1.86229758, "ECCENTRICITY": 0.00243707, "INCLINATION": 55.9237, "RA_OF_ASC_NODE": 311.2978, "ARG_OF_PERICENTER": 274.148, "MEAN_ANOMALY": 85.5607, "EPHEMERIS_TYPE": 0, "CLASSIFICATION_TYPE": "U", "NORAD_CAT_ID": 38250, "ELEMENT_SET_NO": 999, "REV_AT_EPOCH": 9239, "BSTAR": 0, "MEAN_MOTION_DOT": -7.3e-07, "MEAN_MOTION_DDOT": 0}, "tle": {"line1": "1 38250U 12018A   25342.56851010 -.00000073  00000+0  00000+0 0  9991", "line2": "2 38250  55.9237 311.2978 0024370 274.1480  85.5607  1.86229758 92396"}}, "geometry": {"type": "Point", "coordinates": [-126.42215020268051, -55.300916724697935]}}, {"type": "Feature", "properties": {"norad_id": 38251, "name": "BEIDOU-2 M4 (C12)", "group": "gnss", "lat": -30.06800950228129, "lon": -72.65232425669106, "alt_km": 21501.448522718485, "timestamp": "2025-12-08T23:34:04.211334+00:00", "meta": {"OBJECT_NAME": "BEIDOU-2 M4 (C12)", "OBJECT_ID": "2012-018B", "EPOCH": "2025-12-08T12:00:48.229344", "MEAN_MOTION": 1.86229448, "ECCENTRICITY": 0.00155158, "INCLINATION": 55.8253, "RA_OF_ASC_NODE": 310.5294, "ARG_OF_PERICENTER": 277.5058, "MEAN_ANOMALY": 82.3051, "EPHEMERIS_TYPE": 0, "CLASSIFICATION_TYPE": "U", "NORAD_CAT_ID": 38251, "ELEMENT_SET_NO": 999, "REV_AT_EPOCH": 9239, "BSTAR": 0, "MEAN_MOTION_DOT": -7.3e-07, "MEAN_MOTION_DDOT": 0}, "tle": {"line1": "1 38251U 12018B   25342.50055821 -.00000073  00000+0  00000+0 0  9992", "line2": "2 38251  55.8253 310.5294 0015515 277.5058  82.3051  1.86229448 92390"}}, "geometry": {"type": "Point", "coordinates": [-72.65232425669106, -30.06800950228129]}}, {"type": "Feature", "properties": {"norad_id": 38652, "name": "SES-5 (EGNOS/PRN 136)", "group": "gnss", "lat": 0.0620479990767533, "lon": 76.47445987618134, "alt_km": 35795.5466626346, "timestamp": "2025-12-08T23:34:04.211349+00:00", "meta": {"OBJECT_NAME": "SES-5 (EGNOS/PRN 136)", "OBJECT_ID": "2012-036A", "EPOCH": "2025-12-08T06:46:44.289984", "MEAN_MOTION": 1.00271639, "ECCENTRICITY": 0.00022393, "INCLINATION": 0.0591, "RA_OF_ASC_NODE": 304.1918, "ARG_OF_PERICENTER": 310.2354, "MEAN_ANOMALY": 289.5298, "EPHEMERIS_TYPE": 0, "CLASSIFICATION_TYPE": "U", "NORAD_CAT_ID": 38652, "ELEMENT_SET_NO": 999, "REV_AT_EPOCH": 4255, "BSTAR": 0, "MEAN_MOTION_DOT": 3.6e-07, "MEAN_MOTION_DDOT": 0}, "tle": {"line1": "1 38652U 12036A   25342.28245706  .00000036  00000+0  00000+0 0  9993", "line2": "2 38652   0.0591 304.1918 0002239 310.2354 289.5298  1.00271639 42559"}}, "geometry": {"type": "Point", "coordinates": [76.47445987618134, 0.0620479990767533]}}, {"type": "Feature", "properties": {"norad_id": 38775, "name": "BEIDOU-2 M6 (C14)", "group": "gnss", "lat": 19.307467895111788, "lon": -124.2600264807897, "alt_km": 21556.273249736594, "timestamp": "2025-12-08T23:34:04.211361+00:00", "meta": {"OBJECT_NAME": "BEIDOU-2 M6 (C14)", "OBJECT_ID": "2012-050B", "EPOCH": "2025-12-08T05:04:33.479040", "MEAN_MOTION": 1.86230723, "ECCENTRICITY": 0.00110356, "INCLINATION": 56.3747, "RA_OF_ASC_NODE": 69.2178, "ARG_OF_PERICENTER": 345.3738, "MEAN_ANOMALY": 14.6151, "EPHEMERIS_TYPE": 0, "CLASSIFICATION_TYPE": "U", "NORAD_CAT_ID": 38775, "ELEMENT_SET_NO": 999, "REV_AT_EPOCH": 8975, "BSTAR": 0, "MEAN_MOTION_DOT": -4.4e-07, "MEAN_MOTION_DDOT": 0}, "tle": {"line1": "1 38775U 12050B   25342.21149860 -.00000044  00000+0  00000+0 0  9992", "line2": "2 38775  56.3747  69.2178 0011035 345.3738  14.6151  1.86230723 89759"}}, "geometry": {"type": "Point", "coordinates": [-124.2600264807897, 19.307467895111788]}}]}